CCSDS_OMM_VERS = 2.0
CREATION_DATE  = 
ORIGINATOR     = 

OBJECT_NAME    = HULIANWANG DIGUI 12D
OBJECT_ID      = 2025-231D
CENTER_NAME    = EARTH
REF_FRAME      = TEME
TIME_SYSTEM    = UTC
MEAN_ELEMENT_THEORY = SGP/SGP4

EPOCH          = 2025-11-12T17:13:34.699872
MEAN_MOTION    = 13.99891870
ECCENTRICITY   = .00001983
INCLINATION    = 49.9995
RA_OF_ASC_NODE = 245.0894
ARG_OF_PERICENTER = 354.1096
MEAN_ANOMALY   = 5.9804

EPHEMERIS_TYPE = 0
CLASSIFICATION_TYPE = U
NORAD_CAT_ID   = 65998
ELEMENT_SET_NO = 999
REV_AT_EPOCH   = 389
BSTAR          = .18904393E-3
MEAN_MOTION_DOT = .129E-5
MEAN_MOTION_DDOT = 0

CCSDS_OMM_VERS = 2.0
CREATION_DATE  = 
ORIGINATOR     = 

OBJECT_NAME    = HULIANWANG DIGUI 12E
OBJECT_ID      = 2025-231E
CENTER_NAME    = EARTH
REF_FRAME      = TEME
TIME_SYSTEM    = UTC
MEAN_ELEMENT_THEORY = SGP/SGP4

EPOCH          = 2025-11-12T17:23:32.207712
MEAN_MOTION    = 14.00180423
ECCENTRICITY   = .00002871
INCLINATION    = 50.0018
RA_OF_ASC_NODE = 245.1327
ARG_OF_PERICENTER = 331.9932
MEAN_ANOMALY   = 28.0955

EPHEMERIS_TYPE = 0
CLASSIFICATION_TYPE = U
NORAD_CAT_ID   = 65999
ELEMENT_SET_NO = 999
REV_AT_EPOCH   = 389
BSTAR          = .18257774E-3
MEAN_MOTION_DOT = .121E-5
MEAN_MOTION_DDOT = 0

CCSDS_OMM_VERS = 2.0
CREATION_DATE  = 
ORIGINATOR     = 

OBJECT_NAME    = HULIANWANG DIGUI 12F
OBJECT_ID      = 2025-231F
CENTER_NAME    = EARTH
REF_FRAME      = TEME
TIME_SYSTEM    = UTC
MEAN_ELEMENT_THEORY = SGP/SGP4

EPOCH          = 2025-11-13T03:19:27.063552
MEAN_MOTION    = 13.99417685
ECCENTRICITY   = .00003571
INCLINATION    = 50.0078
RA_OF_ASC_NODE = 243.3316
ARG_OF_PERICENTER = 29.9054
MEAN_ANOMALY   = 330.1869

EPHEMERIS_TYPE = 0
CLASSIFICATION_TYPE = U
NORAD_CAT_ID   = 66000
ELEMENT_SET_NO = 999
REV_AT_EPOCH   = 395
BSTAR          = .22502154E-3
MEAN_MOTION_DOT = .18E-5
MEAN_MOTION_DDOT = 0

CCSDS_OMM_VERS = 2.0
CREATION_DATE  = 
ORIGINATOR     = 

OBJECT_NAME    = HULIANWANG DIGUI 12G
OBJECT_ID      = 2025-231G
CENTER_NAME    = EARTH
REF_FRAME      = TEME
TIME_SYSTEM    = UTC
MEAN_ELEMENT_THEORY = SGP/SGP4

EPOCH          = 2025-11-13T03:35:24.048096
MEAN_MOTION    = 13.99591149
ECCENTRICITY   = .00008035
INCLINATION    = 50.0041
RA_OF_ASC_NODE = 243.3904
ARG_OF_PERICENTER = 11.3775
MEAN_ANOMALY   = 348.7145

EPHEMERIS_TYPE = 0
CLASSIFICATION_TYPE = U
NORAD_CAT_ID   = 66001
ELEMENT_SET_NO = 999
REV_AT_EPOCH   = 395
BSTAR          = .2480533E-3
MEAN_MOTION_DOT = .214E-5
MEAN_MOTION_DDOT = 0

CCSDS_OMM_VERS = 2.0
CREATION_DATE  = 
ORIGINATOR     = 

OBJECT_NAME    = HULIANWANG DIGUI 12H
OBJECT_ID      = 2025-231H
CENTER_NAME    = EARTH
REF_FRAME      = TEME
TIME_SYSTEM    = UTC
MEAN_ELEMENT_THEORY = SGP/SGP4

EPOCH          = 2025-11-13T20:46:37.256736
MEAN_MOTION    = 13.98948659
ECCENTRICITY   = .00003883
INCLINATION    = 50.0070
RA_OF_ASC_NODE = 240.5196
ARG_OF_PERICENTER = 215.5712
MEAN_ANOMALY   = 144.5165

EPHEMERIS_TYPE = 0
CLASSIFICATION_TYPE = U
NORAD_CAT_ID   = 66002
ELEMENT_SET_NO = 999
REV_AT_EPOCH   = 405
BSTAR          = .59027772E-3
MEAN_MOTION_DOT = .707E-5
MEAN_MOTION_DDOT = 0

CCSDS_OMM_VERS = 2.0
CREATION_DATE  = 
ORIGINATOR     = 

OBJECT_NAME    = HULIANWANG DIGUI 12J
OBJECT_ID      = 2025-231J
CENTER_NAME    = EARTH
REF_FRAME      = TEME
TIME_SYSTEM    = UTC
MEAN_ELEMENT_THEORY = SGP/SGP4

EPOCH          = 2025-11-13T03:29:02.624928
MEAN_MOTION    = 13.99662386
ECCENTRICITY   = .00016695
INCLINATION    = 50.0060
RA_OF_ASC_NODE = 243.3633
ARG_OF_PERICENTER = 22.5231
MEAN_ANOMALY   = 337.5745

EPHEMERIS_TYPE = 0
CLASSIFICATION_TYPE = U
NORAD_CAT_ID   = 66003
ELEMENT_SET_NO = 999
REV_AT_EPOCH   = 395
BSTAR          = .21412285E-3
MEAN_MOTION_DOT = .165E-5
MEAN_MOTION_DDOT = 0

CCSDS_OMM_VERS = 2.0
CREATION_DATE  = 
ORIGINATOR     = 

OBJECT_NAME    = CZ-8A R/B
OBJECT_ID      = 2025-231K
CENTER_NAME    = EARTH
REF_FRAME      = TEME
TIME_SYSTEM    = UTC
MEAN_ELEMENT_THEORY = SGP/SGP4

EPOCH          = 2025-11-13T21:36:46.506528
MEAN_MOTION    = 14.30039285
ECCENTRICITY   = .01166842
INCLINATION    = 50.0035
RA_OF_ASC_NODE = 235.1925
ARG_OF_PERICENTER = 185.5751
MEAN_ANOMALY   = 174.3872

EPHEMERIS_TYPE = 0
CLASSIFICATION_TYPE = U
NORAD_CAT_ID   = 66004
ELEMENT_SET_NO = 999
REV_AT_EPOCH   = 413
BSTAR          = .14421003E-3
MEAN_MOTION_DOT = .24E-5
MEAN_MOTION_DDOT = 0

CCSDS_OMM_VERS = 2.0
CREATION_DATE  = 
ORIGINATOR     = 

OBJECT_NAME    = STARLINK-34849
OBJECT_ID      = 2025-232A
CENTER_NAME    = EARTH
REF_FRAME      = TEME
TIME_SYSTEM    = UTC
MEAN_ELEMENT_THEORY = SGP/SGP4

EPOCH          = 2025-11-13T21:51:13.169376
MEAN_MOTION    = 15.39610508
ECCENTRICITY   = .00011273
INCLINATION    = 53.1618
RA_OF_ASC_NODE = 283.5150
ARG_OF_PERICENTER = 103.7056
MEAN_ANOMALY   = 256.4075

EPHEMERIS_TYPE = 0
CLASSIFICATION_TYPE = U
NORAD_CAT_ID   = 66005
ELEMENT_SET_NO = 999
REV_AT_EPOCH   = 567
BSTAR          = .24793755E-2
MEAN_MOTION_DOT = .100052E-2
MEAN_MOTION_DDOT = 0

CCSDS_OMM_VERS = 2.0
CREATION_DATE  = 
ORIGINATOR     = 

OBJECT_NAME    = STARLINK-35336
OBJECT_ID      = 2025-232B
CENTER_NAME    = EARTH
REF_FRAME      = TEME
TIME_SYSTEM    = UTC
MEAN_ELEMENT_THEORY = SGP/SGP4

EPOCH          = 2025-11-13T22:00:03.000096
MEAN_MOTION    = 15.39562699
ECCENTRICITY   = .00014865
INCLINATION    = 53.1582
RA_OF_ASC_NODE = 283.1251
ARG_OF_PERICENTER = 93.2873
MEAN_ANOMALY   = 121.2227

EPHEMERIS_TYPE = 0
CLASSIFICATION_TYPE = U
NORAD_CAT_ID   = 66006
ELEMENT_SET_NO = 999
REV_AT_EPOCH   = 490
BSTAR          = .74785085E-3
MEAN_MOTION_DOT = .29574E-3
MEAN_MOTION_DDOT = 0

CCSDS_OMM_VERS = 2.0
CREATION_DATE  = 
ORIGINATOR     = 

OBJECT_NAME    = STARLINK-35196
OBJECT_ID      = 2025-232C
CENTER_NAME    = EARTH
REF_FRAME      = TEME
TIME_SYSTEM    = UTC
MEAN_ELEMENT_THEORY = SGP/SGP4

EPOCH          = 2025-11-13T22:00:03.000096
MEAN_MOTION    = 15.39631373
ECCENTRICITY   = .00009328
INCLINATION    = 53.1599
RA_OF_ASC_NODE = 283.2790
ARG_OF_PERICENTER = 119.1370
MEAN_ANOMALY   = 18.0692

EPHEMERIS_TYPE = 0
CLASSIFICATION_TYPE = U
NORAD_CAT_ID   = 66007
ELEMENT_SET_NO = 999
REV_AT_EPOCH   = 491
BSTAR          = -.16043557E-2
MEAN_MOTION_DOT = -.64058E-3
MEAN_MOTION_DDOT = 0

CCSDS_OMM_VERS = 2.0
CREATION_DATE  = 
ORIGINATOR     = 

OBJECT_NAME    = STARLINK-35236
OBJECT_ID      = 2025-232D
CENTER_NAME    = EARTH
REF_FRAME      = TEME
TIME_SYSTEM    = UTC
MEAN_ELEMENT_THEORY = SGP/SGP4

EPOCH          = 2025-11-13T22:16:49.636128
MEAN_MOTION    = 15.47563976
ECCENTRICITY   = .00014326
INCLINATION    = 53.1579
RA_OF_ASC_NODE = 282.9093
ARG_OF_PERICENTER = 102.9305
MEAN_ANOMALY   = 257.1863

EPHEMERIS_TYPE = 0
CLASSIFICATION_TYPE = U
NORAD_CAT_ID   = 66008
ELEMENT_SET_NO = 999
REV_AT_EPOCH   = 567
BSTAR          = -.20440334E-1
MEAN_MOTION_DOT = -.977994E-2
MEAN_MOTION_DDOT = 0

CCSDS_OMM_VERS = 2.0
CREATION_DATE  = 
ORIGINATOR     = 

OBJECT_NAME    = STARLINK-35276
OBJECT_ID      = 2025-232E
CENTER_NAME    = EARTH
REF_FRAME      = TEME
TIME_SYSTEM    = UTC
MEAN_ELEMENT_THEORY = SGP/SGP4

EPOCH          = 2025-11-13T21:37:49.714176
MEAN_MOTION    = 15.39660568
ECCENTRICITY   = .00010005
INCLINATION    = 53.1596
RA_OF_ASC_NODE = 283.4558
ARG_OF_PERICENTER = 63.1926
MEAN_ANOMALY   = 296.9181

EPHEMERIS_TYPE = 0
CLASSIFICATION_TYPE = U
NORAD_CAT_ID   = 66009
ELEMENT_SET_NO = 999
REV_AT_EPOCH   = 566
BSTAR          = .34722976E-2
MEAN_MOTION_DOT = .14128E-2
MEAN_MOTION_DDOT = 0

