HULIANWANG DIGUI 12D    
1 65998U 25231D   25316.71776273  .00000129  00000+0  18904-3 0  9993
2 65998  49.9995 245.0894 0000198 354.1096   5.9804 13.99891870  3893
HULIANWANG DIGUI 12E    
1 65999U 25231E   25316.72467833  .00000121  00000+0  18258-3 0  9998
2 65999  50.0018 245.1327 0000287 331.9932  28.0955 14.00180423  3897
HULIANWANG DIGUI 12F    
1 66000U 25231F   25317.13850768  .00000180  00000+0  22502-3 0  9993
2 66000  50.0078 243.3316 0000357  29.9054 330.1869 13.99417685  3950
HULIANWANG DIGUI 12G    
1 66001U 25231G   25317.14958389  .00000214  00000+0  24805-3 0  9999
2 66001  50.0041 243.3904 0000803  11.3775 348.7145 13.99591149  3955
HULIANWANG DIGUI 12H    
1 66002U 25231H   25317.86570899  .00000707  00000+0  59028-3 0  9997
2 66002  50.0070 240.5196 0000388 215.5712 144.5165 13.98948659  4054
HULIANWANG DIGUI 12J    
1 66003U 25231J   25317.14516927  .00000165  00000+0  21412-3 0  9995
2 66003  50.0060 243.3633 0001669  22.5231 337.5745 13.99662386  3953
CZ-8A R/B               
1 66004U 25231K   25317.90053827  .00000240  00000+0  14421-3 0  9991
2 66004  50.0035 235.1925 0116684 185.5751 174.3872 14.30039285  4131
STARLINK-34849          
1 66005U 25232A   25317.91056909  .00100052  00000+0  24794-2 0  9993
2 66005  53.1618 283.5150 0001127 103.7056 256.4075 15.39610508  5675
STARLINK-35336          
1 66006U 25232B   25317.91670139  .00029574  00000+0  74785-3 0  9996
2 66006  53.1582 283.1251 0001486  93.2873 121.2227 15.39562699  4902
STARLINK-35196          
1 66007U 25232C   25317.91670139 -.00064058  00000+0 -16044-2 0  9998
2 66007  53.1599 283.2790 0000932 119.1370  18.0692 15.39631373  4911
STARLINK-35236          
1 66008U 25232D   25317.92835227 -.00977994  00000+0 -20440-1 0  9997
2 66008  53.1579 282.9093 0001432 102.9305 257.1863 15.47563976  5678
STARLINK-35276          
1 66009U 25232E   25317.90126984  .00141280  00000+0  34723-2 0  9998
2 66009  53.1596 283.4558 0001000  63.1926 296.9181 15.39660568  5667
